2026-134D               
1 69541U 26134D   26180.25268505  .00004666  00000+0  29398-3 0  9996
2 69541  97.7036 250.4108 0015216 229.4954 130.4950 15.09566389  2128
2026-134E               
1 69542U 26134E   26180.25247970  .00004642  00000+0  29234-3 0  9993
2 69542  97.7056 250.4143 0014946 230.2720 129.7192 15.09588250  2120
2026-134F               
1 69543U 26134F   26179.92063745  .00004578  00000+0  28809-3 0  9997
2 69543  97.7009 250.0741 0014197 233.2786 126.7140 15.09630793  2076
2026-134G               
1 69544U 26134G   26180.25127221  .00004657  00000+0  29227-3 0  9999
2 69544  97.7052 250.4153 0014693 232.8642 127.1245 15.09718054  2127
2026-134H               
1 69545U 26134H   26180.25065993  .00004630  00000+0  29009-3 0  9996
2 69545  97.7037 250.4138 0014539 234.3033 125.6844 15.09784071  2113
STARLINK-37880          
1 69546U 26135A   26180.49662852  .00284151  00000+0  14300-2 0  9996
2 69546  97.2825 208.2035 0000734 340.0019  20.1220 15.80914140  2200
STARLINK-37881          
1 69547U 26135B   26180.49606215  .00255348  00000+0  12887-2 0  9992
2 69547  97.2832 208.2037 0000709  18.2382 341.8911 15.80926551  2209
STARLINK-37265          
1 69548U 26135C   26179.79907271  .00202008  00000+0  10274-2 0  9993
2 69548  97.2837 207.4681 0000397 164.2831 195.8450 15.80896079  2098
STARLINK-37871          
1 69549U 26135D   26180.49445171  .00333077  00000+0  16639-2 0  9991
2 69549  97.2817 208.2055 0001225 318.5212  41.5963 15.80949439  2207
STARLINK-37865          
1 69550U 26135E   26179.98659911  .00211953  00000+0  10761-2 0  9992
2 69550  97.2828 207.6720 0001192 104.7040 255.4361 15.80907164  2128
STARLINK-37862          
1 69551U 26135F   26179.98379825  .00331440  00000+0  16568-2 0  9991
2 69551  97.2828 207.6760 0000684 123.5974 236.5360 15.80939290  2127
STARLINK-37861          
1 69552U 26135G   26179.98189554  .00315504  00000+0  15792-2 0  9991
2 69552  97.2830 207.6787 0001250 131.1213 229.0164 15.80951413  2121
STARLINK-37859          
1 69553U 26135H   26179.98068512  .00317156  00000+0  15891-2 0  9997
2 69553  97.2824 207.6802 0001825 134.0002 226.1417 15.80925960  2126
STARLINK-37860          
1 69554U 26135J   26180.36076243  .00248182  00000+0  12796-2 0  9995
2 69554  97.2809 208.0816 0004014 150.0935 210.0563 15.80469980  2181
STARLINK-37858          
1 69555U 26135K   26180.33336806 -.00009177  00000+0 -47209-4 0  9997
2 69555  97.2830 208.0588 0001324  89.1545 127.0338 15.80821792  3262
STARLINK-37927          
1 69556U 26135L   26180.54834669  .00469813  00000+0  22235-2 0  9996
2 69556  97.2852 208.2856 0001708 265.1353  94.9720 15.81782071  2214
STARLINK-37929          
1 69557U 26135M   26180.54750985  .00242822  00000+0  12272-2 0  9994
2 69557  97.2819 208.2865 0001006  56.2995 303.8369 15.80927123  2219
STARLINK-37954          
1 69558U 26135N   26180.54629175  .00317056  00000+0  15859-2 0  9997
2 69558  97.2824 208.2897 0001396  56.2354 303.9047 15.80962743  2213
STARLINK-37958          
1 69559U 26135P   26180.50003471 -.00019440  00000+0 -10084-3 0  9993
2 69559  97.2830 208.2464 0001317  99.2583  11.8370 15.80844718  3299
STARLINK-37950          
1 69560U 26135Q   26179.34095738  .00382639  00000+0  18985-2 0  9990
2 69560  97.2837 207.0196 0001130 133.1005 227.0358 15.80972039  2022
STARLINK-37952          
1 69561U 26135R   26180.54228272  .00209679  00000+0  10669-2 0  9999
2 69561  97.2819 208.2960 0001724  38.1649 321.9741 15.80865803  2213
STARLINK-37935          
1 69562U 26135S   26180.54150990  .00263084  00000+0  13261-2 0  9992
2 69562  97.2836 208.2959 0001145  68.2358 291.9032 15.80933033  2219
STARLINK-37936          
1 69563U 26135T   26179.64826818  .00220812  00000+0  11198-2 0  9990
2 69563  97.2822 207.3673 0001118 107.7754 252.3636 15.80909615  2071
STARLINK-37932          
1 69564U 26135U   26179.58460850  .00135024  00000+0  69249-3 0  9995
2 69564  97.2829 207.3012 0000902 129.0625 231.0724 15.80889212  2061
STARLINK-37916          
1 69565U 26135V   26180.53358455  .00255748  00000+0  12902-2 0  9999
2 69565  97.2825 208.3075 0000722  54.5573 305.5762 15.80934272  2215
STARLINK-37909          
1 69566U 26135W   26180.52727285  .00256709  00000+0  12948-2 0  9998
2 69566  97.2829 208.3163 0000836  66.8570 293.2786 15.80935226  2216
STARLINK-37934          
1 69567U 26135X   26180.53047654  .00228817  00000+0  11585-2 0  9990
2 69567  97.2833 208.3126 0000705  79.0941 281.0406 15.80924210  2219
STARLINK-37938          
1 69568U 26135Y   26180.52803632  .00269864  00000+0  13593-2 0  9994
2 69568  97.2826 208.3149 0001475  96.3583 263.7853 15.80932315  2214
STARLINK-37924          
1 69569U 26135Z   26180.52527362  .00146042  00000+0  74876-3 0  9992
2 69569  97.2829 208.3185 0001405  79.3115 280.8312 15.80866439  2216
