OBJECT_NAME,OBJECT_ID,EPOCH,MEAN_MOTION,ECCENTRICITY,INCLINATION,RA_OF_ASC_NODE,ARG_OF_PERICENTER,MEAN_ANOMALY,EPHEMERIS_TYPE,CLASSIFICATION_TYPE,NORAD_CAT_ID,ELEMENT_SET_NO,REV_AT_EPOCH,BSTAR,MEAN_MOTION_DOT,MEAN_MOTION_DDOT
2026-134D,2026-134D,2026-06-29T06:03:51.988320,15.09566389,.0015216,97.7036,250.4108,229.4954,130.4950,0,U,69541,999,212,.29398E-3,.4666E-4,0
2026-134E,2026-134E,2026-06-29T06:03:34.246080,15.09588250,.0014946,97.7056,250.4143,230.2720,129.7192,0,U,69542,999,212,.29234E-3,.4642E-4,0
2026-134F,2026-134F,2026-06-28T22:05:43.075680,15.09630793,.00141973,97.7009,250.0741,233.2786,126.7140,0,U,69543,999,207,.28809055E-3,.4578E-4,0
2026-134G,2026-134G,2026-06-29T06:01:49.918944,15.09718054,.0014693,97.7052,250.4153,232.8642,127.1245,0,U,69544,999,212,.29227E-3,.4657E-4,0
2026-134H,2026-134H,2026-06-29T06:00:57.017952,15.09784071,.0014539,97.7037,250.4138,234.3033,125.6844,0,U,69545,999,211,.29009E-3,.463E-4,0
STARLINK-37880,2026-135A,2026-06-29T11:55:08.704128,15.80914140,.0000734,97.2825,208.2035,340.0019,20.1220,0,U,69546,999,220,.143E-2,.284151E-2,0
STARLINK-37881,2026-135B,2026-06-29T11:54:19.769760,15.80926551,.0000709,97.2832,208.2037,18.2382,341.8911,0,U,69547,999,220,.12887E-2,.255348E-2,0
STARLINK-37265,2026-135C,2026-06-28T19:10:39.882144,15.80896079,.00003976,97.2837,207.4681,164.2831,195.8450,0,U,69548,999,209,.10273533E-2,.202008E-2,0
STARLINK-37871,2026-135D,2026-06-29T11:52:00.627744,15.80949439,.0001225,97.2817,208.2055,318.5212,41.5963,0,U,69549,999,220,.16639E-2,.333077E-2,0
STARLINK-37865,2026-135E,2026-06-28T23:40:42.163104,15.80907164,.00011926,97.2828,207.6720,104.7040,255.4361,0,U,69550,999,212,.10761292E-2,.211953E-2,0
STARLINK-37862,2026-135F,2026-06-28T23:36:40.168800,15.80939290,.0000684,97.2828,207.6760,123.5974,236.5360,0,U,69551,999,212,.16567746E-2,.33144E-2,0
STARLINK-37861,2026-135G,2026-06-28T23:33:55.774656,15.80951413,.00012508,97.2830,207.6787,131.1213,229.0164,0,U,69552,999,212,.1579249E-2,.315504E-2,0
STARLINK-37859,2026-135H,2026-06-28T23:32:11.194368,15.80925960,.00018258,97.2824,207.6802,134.0002,226.1417,0,U,69553,999,212,.15890604E-2,.317156E-2,0
STARLINK-37860,2026-135J,2026-06-29T08:39:29.873952,15.80469980,.0004014,97.2809,208.0816,150.0935,210.0563,0,U,69554,999,218,.12796E-2,.248182E-2,0
STARLINK-37858,2026-135K,2026-06-29T08:00:03.000384,15.80821792,.0001324,97.2830,208.0588,89.1545,127.0338,0,U,69555,999,326,-.47209E-4,-.9177E-4,0
STARLINK-37927,2026-135L,2026-06-29T13:09:37.154016,15.81782071,.0001708,97.2852,208.2856,265.1353,94.9720,0,U,69556,999,221,.22235E-2,.469813E-2,0
STARLINK-37929,2026-135M,2026-06-29T13:08:24.851040,15.80927123,.0001006,97.2819,208.2865,56.2995,303.8369,0,U,69557,999,221,.12272E-2,.242822E-2,0
STARLINK-37954,2026-135N,2026-06-29T13:06:39.607200,15.80962743,.0001396,97.2824,208.2897,56.2354,303.9047,0,U,69558,999,221,.15859E-2,.317056E-2,0
STARLINK-37958,2026-135P,2026-06-29T12:00:02.998944,15.80844718,.0001317,97.2830,208.2464,99.2583,11.8370,0,U,69559,999,329,-.10084E-3,-.1944E-3,0
STARLINK-37950,2026-135Q,2026-06-28T08:10:58.717632,15.80972039,.00011308,97.2837,207.0196,133.1005,227.0358,0,U,69560,999,202,.189846E-2,.382639E-2,0
STARLINK-37952,2026-135R,2026-06-29T13:00:53.227008,15.80865803,.0001724,97.2819,208.2960,38.1649,321.9741,0,U,69561,999,221,.10669E-2,.209679E-2,0
STARLINK-37935,2026-135S,2026-06-29T12:59:46.455360,15.80933033,.0001145,97.2836,208.2959,68.2358,291.9032,0,U,69562,999,221,.13261E-2,.263084E-2,0
STARLINK-37936,2026-135T,2026-06-28T15:33:30.370752,15.80909615,.00011181,97.2822,207.3673,107.7754,252.3636,0,U,69563,999,207,.11198078E-2,.220812E-2,0
STARLINK-37932,2026-135U,2026-06-28T14:01:50.174400,15.80889212,.00009022,97.2829,207.3012,129.0625,231.0724,0,U,69564,999,206,.69249434E-3,.135024E-2,0
STARLINK-37916,2026-135V,2026-06-29T12:48:21.705120,15.80934272,.0000722,97.2825,208.3075,54.5573,305.5762,0,U,69565,999,221,.12902E-2,.255748E-2,0
STARLINK-37909,2026-135W,2026-06-29T12:39:16.374240,15.80935226,.0000836,97.2829,208.3163,66.8570,293.2786,0,U,69566,999,221,.12948E-2,.256709E-2,0
STARLINK-37934,2026-135X,2026-06-29T12:43:53.173056,15.80924210,.0000705,97.2833,208.3126,79.0941,281.0406,0,U,69567,999,221,.11585E-2,.228817E-2,0
STARLINK-37938,2026-135Y,2026-06-29T12:40:22.338048,15.80932315,.0001475,97.2826,208.3149,96.3583,263.7853,0,U,69568,999,221,.13593E-2,.269864E-2,0
STARLINK-37924,2026-135Z,2026-06-29T12:36:23.640768,15.80866439,.0001405,97.2829,208.3185,79.3115,280.8312,0,U,69569,999,221,.74876E-3,.146042E-2,0
